NORAD_CAT_ID,OBJECT_NAME,OBJECT_TYPE,EPOCH,MEAN_MOTION,ECCENTRICITY,INCLINATION,RA_OF_ASC_NODE,ARG_OF_PERICENTER,MEAN_ANOMALY,BSTAR,MEAN_MOTION_DOT,MEAN_MOTION_DDOT,TLE_LINE0,TLE_LINE1,TLE_LINE2,SEMIMAJOR_AXIS,PERIOD,APOGEE,PERIGEE,DECAYED
52358.0,STARLINK-3837,PAYLOAD,2023-06-04 00:46:04,15.08837699,0.000121,53.2185,51.6486,99.9917,260.1212,6.8258e-05,7.99e-06,0.0,0 STARLINK-3837,1 52358U 22045AD  23155.03199829  .00000799  00000-0  68258-4 0  9991,2 52358  53.2185  51.6486 0001210  99.9917 260.1212 15.08837699 63365,6917.887,95.438,540.589,538.915,0.0
52358.0,STARLINK-3837,PAYLOAD,2023-06-04 21:26:05,15.08839841,0.0001215,53.2184,47.7795,99.1739,260.9391,3.3827e-05,2.51e-06,0.0,0 STARLINK-3837,1 52358U 22045AD  23155.89311967  .00000251  00000-0  33827-4 0  9991,2 52358  53.2184  47.7795 0001215  99.1739 260.9391 15.08839841 63493,6917.881,95.438,540.586,538.905,0.0
52358.0,STARLINK-3837,PAYLOAD,2023-06-05 02:12:14,15.08842888,0.0001253,53.2186,46.887,93.8031,266.3104,5.8795e-05,6.48e-06,0.0,0 STARLINK-3837,1 52358U 22045AD  23156.09183714  .00000648  00000-0  58795-4 0  9992,2 52358  53.2186  46.8870 0001253  93.8031 266.3104 15.08842888 63528,6917.872,95.437,540.603,538.87,0.0
52358.0,STARLINK-3837,PAYLOAD,2023-06-05 11:44:33,15.08844469,0.0001231,53.2182,45.1034,91.2062,268.9072,9.2559e-05,1.186e-05,0.0,0 STARLINK-3837,1 52358U 22045AD  23156.48927449  .00001186  00000-0  92559-4 0  9990,2 52358  53.2182  45.1034 0001231  91.2062 268.9072 15.08844469 63585,6917.867,95.437,540.583,538.88,0.0
52358.0,STARLINK-3837,PAYLOAD,2023-06-05 18:06:05,15.08848742,0.0001226,53.2183,43.9143,89.4696,270.6437,0.0001066,1.409e-05,0.0,0 STARLINK-3837,1 52358U 22045AD  23156.75423086  .00001409  00000-0  10660-3 0  9998,2 52358  53.2183  43.9143 0001226  89.4696 270.6437 15.08848742 63627,6917.854,95.437,540.567,538.871,0.0
52358.0,STARLINK-3837,PAYLOAD,2023-06-05 22:52:14,15.08854223,0.0001203,53.2183,43.0221,88.6446,271.4684,0.00014843,2.076e-05,0.0,0 STARLINK-3837,1 52358U 22045AD  23156.95294508  .00002076  00000-0  14843-3 0  9993,2 52358  53.2183  43.0221 0001203  88.6446 271.4684 15.08854223 63651,6917.837,95.437,540.534,538.87,0.0
52358.0,STARLINK-3837,PAYLOAD,2023-06-06 11:35:20,15.08843241,9.78e-05,53.2197,40.645,89.037,271.0734,5.9339e-05,6.57e-06,0.0,0 STARLINK-3837,1 52358U 22045AD  23157.48287238  .00000657  00000-0  59339-4 0  9997,2 52358  53.2197  40.6450 0000978  89.0370 271.0734 15.08843241 63731,6917.87,95.437,540.412,539.059,0.0
52358.0,STARLINK-3837,PAYLOAD,2023-06-07 11:26:08,15.08834703,0.0001383,53.2181,36.1812,106.5311,253.5833,-6.6919e-05,-1.353e-05,0.0,0 STARLINK-3837,1 52358U 22045AD  23158.47648195 -.00001353  00000-0 -66919-4 0  9998,2 52358  53.2181  36.1812 0001383 106.5311 253.5833 15.08834703 63881,6917.897,95.438,540.718,538.805,0.0
52358.0,STARLINK-3837,PAYLOAD,2023-06-07 17:47:40,15.08835335,0.0001245,53.2186,34.9942,95.0498,265.0637,-0.00010987,-2.036e-05,0.0,0 STARLINK-3837,1 52358U 22045AD  23158.74144409 -.00002036  00000-0 -10987-3 0  9999,2 52358  53.2186  34.9942 0001245  95.0498 265.0637 15.08835335 63928,6917.895,95.438,540.621,538.898,0.0
52358.0,STARLINK-3837,PAYLOAD,2023-06-07 22:33:49,15.08838266,0.0001284,53.2185,34.1039,83.3874,276.7264,-6.7491e-05,-1.362e-05,0.0,0 STARLINK-3837,1 52358U 22045AD  23158.94016185 -.00001362  00000-0 -67491-4 0  9994,2 52358  53.2185  34.1039 0001284  83.3874 276.7264 15.08838266 63951,6917.886,95.438,540.639,538.862,0.0
52358.0,STARLINK-3837,PAYLOAD,2023-06-08 01:44:35,15.08842802,0.0001243,53.2183,33.5071,86.7784,273.335,-6.712e-05,-1.356e-05,0.0,0 STARLINK-3837,1 52358U 22045AD  23159.07263838 -.00001356  00000-0 -67120-4 0  9990,2 52358  53.2183  33.5071 0001243  86.7784 273.3350 15.08842802 63972,6917.872,95.437,540.597,538.877,0.0
52358.0,STARLINK-3837,PAYLOAD,2023-06-09 07:56:55,15.08836688,0.0001534,53.2196,27.8539,84.6999,275.4168,6.0513e-05,6.75e-06,0.0,0 STARLINK-3837,1 52358U 22045AD  23160.33120096  .00000675  00000-0  60513-4 0  9999,2 52358  53.2196  27.8539 0001534  84.6999 275.4168 15.08836688 64166,6917.891,95.438,540.817,538.694,0.0
52358.0,STARLINK-3837,PAYLOAD,2023-06-09 15:53:52,15.08828268,0.0001327,53.2183,26.3708,89.327,270.7874,5.0734e-05,5.19e-06,0.0,0 STARLINK-3837,1 52358U 22045AD  23160.66240845  .00000519  00000-0  50734-4 0  9991,2 52358  53.2183  26.3708 0001327  89.3270 270.7874 15.08828268 64211,6917.916,95.438,540.699,538.863,0.0
52358.0,STARLINK-3837,PAYLOAD,2023-06-09 22:15:24,15.08833899,0.000137,53.2182,25.1817,93.8692,266.2456,9.0727e-05,1.156e-05,0.0,0 STARLINK-3837,1 52358U 22045AD  23160.92736491  .00001156  00000-0  90727-4 0  9991,2 52358  53.2182  25.1817 0001370  93.8692 266.2456 15.08833899 64250,6917.899,95.438,540.712,538.816,0.0
52358.0,STARLINK-3837,PAYLOAD,2023-06-10 09:23:06,15.08840902,0.0001205,53.2185,23.1012,89.957,270.156,7.7969e-06,-1.64e-06,0.0,0 STARLINK-3837,1 52358U 22045AD  23161.39104356 -.00000164  00000-0  77969-5 0  9995,2 52358  53.2185  23.1012 0001205  89.9570 270.1560 15.08840902 64327,6917.878,95.437,540.576,538.909,0.0
52358.0,STARLINK-3837,PAYLOAD,2023-06-11 07:38:30,15.08845166,0.0001205,53.2189,18.9386,102.7782,257.3345,-1.886e-05,-5.88e-06,0.0,0 STARLINK-3837,1 52358U 22045AD  23162.31840289 -.00000588  00000-0 -18860-4 0  9995,2 52358  53.2189  18.9386 0001205 102.7782 257.3345 15.08845166 64466,6917.865,95.437,540.563,538.896,0.0
52358.0,STARLINK-3837,PAYLOAD,2023-06-11 20:21:35,15.08839831,0.0001023,53.2183,16.5593,90.4806,269.6303,0.00012196,1.654e-05,0.0,0 STARLINK-3837,1 52358U 22045AD  23162.84832326  .00001654  00000-0  12196-3 0  9994,2 52358  53.2183  16.5593 0001023  90.4806 269.6303 15.08839831 64543,6917.881,95.438,540.454,539.038,0.0
52358.0,STARLINK-3837,PAYLOAD,2023-06-12 07:29:17,15.08841437,0.0001013,53.2182,14.4775,87.2716,272.8392,7.073e-05,8.38e-06,0.0,0 STARLINK-3837,1 52358U 22045AD  23163.31200320  .00000838  00000-0  70730-4 0  9992,2 52358  53.2182  14.4775 0001013  87.2716 272.8392 15.08841437 64611,6917.876,95.437,540.442,539.04,0.0
52358.0,STARLINK-3837,PAYLOAD,2023-06-12 20:12:22,15.08839498,0.0001017,53.2182,12.0986,87.2416,272.8692,6.0851e-05,6.81e-06,0.0,0 STARLINK-3837,1 52358U 22045AD  23163.84192468  .00000681  00000-0  60851-4 0  9992,2 52358  53.2182  12.0986 0001017  87.2416 272.8692 15.08839498 64695,6917.882,95.438,540.45,539.043,0.0
52358.0,STARLINK-3837,PAYLOAD,2023-06-12 23:23:08,15.0884717,0.0001036,53.2182,11.5016,94.866,265.2451,9.3823e-05,1.206e-05,0.0,0 STARLINK-3837,1 52358U 22045AD  23163.97439817  .00001206  00000-0  93823-4 0  9997,2 52358  53.2182  11.5016 0001036  94.8660 265.2451 15.08847170 64717,6917.858,95.437,540.44,539.007,0.0
52358.0,STARLINK-3837,PAYLOAD,2023-06-13 20:03:09,15.08839998,9.79e-05,53.2182,7.6378,92.9009,267.2096,4.2556e-05,3.9e-06,0.0,0 STARLINK-3837,1 52358U 22045AD  23164.83552336  .00000390  00000-0  42556-4 0  9995,2 52358  53.2182   7.6378 0000979  92.9009 267.2096 15.08839998 64845,6917.88,95.438,540.423,539.068,0.0
52358.0,STARLINK-3837,PAYLOAD,2023-06-14 13:32:24,15.08832209,0.000101,53.2184,4.3663,95.246,264.8647,-1.4208e-05,-5.14e-06,0.0,0 STARLINK-3837,1 52358U 22045AD  23165.56417004 -.00000514  00000-0 -14208-4 0  9991,2 52358  53.2184   4.3663 0001010  95.2460 264.8647 15.08832209 64957,6917.904,95.438,540.468,539.07,0.0
52358.0,STARLINK-3837,PAYLOAD,2023-06-14 15:07:47,15.08832519,0.0001045,53.2183,4.0689,94.7301,265.3811,-1.8222e-05,-5.78e-06,0.0,0 STARLINK-3837,1 52358U 22045AD  23165.63041028 -.00000578  00000-0 -18222-4 0  9998,2 52358  53.2183   4.0689 0001045  94.7301 265.3811 15.08832519 64961,6917.903,95.438,540.491,539.045,0.0
52358.0,STARLINK-3837,PAYLOAD,2023-06-14 19:53:56,15.08835478,0.0001078,53.2184,3.177,86.4564,273.6551,3.5958e-06,-2.31e-06,0.0,0 STARLINK-3837,1 52358U 22045AD  23165.82912856 -.00000231  00000-0  35958-5 0  9996,2 52358  53.2184   3.1770 0001078  86.4564 273.6551 15.08835478 64991,6917.894,95.438,540.505,539.013,0.0
52358.0,STARLINK-3837,PAYLOAD,2023-06-14 23:04:42,15.08839543,0.0001075,53.2183,2.5821,85.2807,274.8308,-1.4131e-05,-5.13e-06,0.0,0 STARLINK-3837,1 52358U 22045AD  23165.96160691 -.00000513  00000-0 -14131-4 0  9996,2 52358  53.2183   2.5821 0001075  85.2807 274.8308 15.08839543 65018,6917.882,95.438,540.49,539.003,0.0
52358.0,STARLINK-3837,PAYLOAD,2023-06-15 13:23:11,15.0884863,9.6e-05,53.2182,359.9061,87.7584,272.3518,-0.00014462,-2.589e-05,0.0,0 STARLINK-3837,1 52358U 22045AD  23166.55776915 -.00002589  00000-0 -14462-3 0  9995,2 52358  53.2182 359.9061 0000960  87.7584 272.3518 15.08848630 65106,6917.854,95.437,540.383,539.055,0.0
52358.0,STARLINK-3837,PAYLOAD,2023-06-15 19:44:43,15.08847549,9.86e-05,53.2182,358.7166,87.8095,272.301,-1.6597e-05,-5.52e-06,0.0,0 STARLINK-3837,1 52358U 22045AD  23166.82272398 -.00000552  00000-0 -16597-4 0  9991,2 52358  53.2182 358.7166 0000986  87.8095 272.3010 15.08847549 65144,6917.857,95.437,540.404,539.04,0.0
52358.0,STARLINK-3837,PAYLOAD,2023-06-15 22:55:29,15.0885484,9.73e-05,53.2183,358.1218,87.6101,272.5002,-7.2928e-05,-1.449e-05,0.0,0 STARLINK-3837,1 52358U 22045AD  23166.95520050 -.00001449  00000-0 -72928-4 0  9992,2 52358  53.2183 358.1218 0000973  87.6101 272.5002 15.08854840 65166,6917.835,95.437,540.373,539.027,0.0
52358.0,STARLINK-3837,PAYLOAD,2023-06-16 05:17:02,15.08843133,0.0001012,53.2184,356.9323,84.5624,275.5484,2.3671e-05,8.9e-07,0.0,0 STARLINK-3837,1 52358U 22045AD  23167.22016486  .00000089  00000-0  23671-4 0  9994,2 52358  53.2184 356.9323 0001012  84.5624 275.5484 15.08843133 65206,6917.871,95.437,540.436,539.036,0.0
52358.0,STARLINK-3837,PAYLOAD,2023-06-16 13:13:56,15.08888609,7.23e-05,53.2185,355.4451,83.7688,276.3386,-0.00052125,-8.585e-05,0.0,0 STARLINK-3837,1 52358U 22045AD  23167.55135329 -.00008585  00000-0 -52125-3 0  9994,2 52358  53.2185 355.4451 0000723  83.7688 276.3386 15.08888609 65254,6917.732,95.434,540.097,539.097,0.0
